{"epoch":1784799577,"count":18318,"objects":[{"id":"62701","name":"FIREFLY-1","type":"PAYLOAD","l1":"1 62701U 25009CW  26203.88886023  .00001219  00000-0  12335-3 0  9998","l2":"2 62701  97.7056 281.2768 0003227 191.9567 168.1576 14.92753433 82643"},{"id":"62704","name":"FIREFLY-2","type":"PAYLOAD","l1":"1 62704U 25009CZ  26203.86678357  .00000728  00000-0  75841-4 0  9994","l2":"2 62704  97.7012 281.0207 0005735 336.2615  23.8340 14.92747164 82648"},{"id":"62710","name":"FIREFLY-3","type":"PAYLOAD","l1":"1 62710U 25009DF  26203.84457250  .00001061  00000-0  10796-3 0  9994","l2":"2 62710  97.7046 281.2629 0004417  55.2372 304.9263 14.92813311 82652"}]}