{"fetched_at":"2026-07-23T07:05:38.658Z","source":"https://celestrak.org/NORAD/elements/gp.php?NAME=FIREFLY&FORMAT=JSON","constellation":"pixxel","records":[{"OBJECT_NAME":"FIREFLY-1","OBJECT_ID":"2025-009CW","EPOCH":"2026-07-22T21:19:57.523872","CLASSIFICATION_TYPE":"U","MEAN_MOTION":14.92753433,"ECCENTRICITY":0.00032268,"INCLINATION":97.7056,"RA_OF_ASC_NODE":281.2768,"ARG_OF_PERICENTER":191.9567,"MEAN_ANOMALY":168.1576,"EPHEMERIS_TYPE":0,"NORAD_CAT_ID":62701,"ELEMENT_SET_NO":999,"REV_AT_EPOCH":8264,"BSTAR":0.00012335135,"MEAN_MOTION_DOT":0.00001219,"MEAN_MOTION_DDOT":0},{"OBJECT_NAME":"FIREFLY-2","OBJECT_ID":"2025-009CZ","EPOCH":"2026-07-22T20:48:10.100448","CLASSIFICATION_TYPE":"U","MEAN_MOTION":14.92747164,"ECCENTRICITY":0.0005735,"INCLINATION":97.7012,"RA_OF_ASC_NODE":281.0207,"ARG_OF_PERICENTER":336.2615,"MEAN_ANOMALY":23.834,"EPHEMERIS_TYPE":0,"NORAD_CAT_ID":62704,"ELEMENT_SET_NO":999,"REV_AT_EPOCH":8264,"BSTAR":0.000075840838,"MEAN_MOTION_DOT":0.00000728,"MEAN_MOTION_DDOT":0},{"OBJECT_NAME":"FIREFLY-3","OBJECT_ID":"2025-009DF","EPOCH":"2026-07-22T20:16:11.064000","CLASSIFICATION_TYPE":"U","MEAN_MOTION":14.92813311,"ECCENTRICITY":0.00044174,"INCLINATION":97.7046,"RA_OF_ASC_NODE":281.2629,"ARG_OF_PERICENTER":55.2372,"MEAN_ANOMALY":304.9263,"EPHEMERIS_TYPE":0,"NORAD_CAT_ID":62710,"ELEMENT_SET_NO":999,"REV_AT_EPOCH":8265,"BSTAR":0.00010796489,"MEAN_MOTION_DOT":0.00001061,"MEAN_MOTION_DDOT":0}]}
